CCSDS_OMM_VERS = 2.0
CREATION_DATE  = 
ORIGINATOR     = 

OBJECT_NAME    = COSMOS 2242
OBJECT_ID      = 1993-024A
CENTER_NAME    = EARTH
REF_FRAME      = TEME
TIME_SYSTEM    = UTC
MEAN_ELEMENT_THEORY = SGP/SGP4

EPOCH          = 2026-04-04T20:16:40.204128
MEAN_MOTION    = 14.96675850
ECCENTRICITY   = .00155625
INCLINATION    = 82.5178
RA_OF_ASC_NODE = 241.6916
ARG_OF_PERICENTER = 213.1372
MEAN_ANOMALY   = 146.8877

EPHEMERIS_TYPE = 0
CLASSIFICATION_TYPE = U
NORAD_CAT_ID   = 22626
ELEMENT_SET_NO = 999
REV_AT_EPOCH   = 78430
BSTAR          = .25334751E-3
MEAN_MOTION_DOT = .2922E-4
MEAN_MOTION_DDOT = 0

CCSDS_OMM_VERS = 2.0
CREATION_DATE  = 
ORIGINATOR     = 

OBJECT_NAME    = SL-16 R/B
OBJECT_ID      = 1993-059B
CENTER_NAME    = EARTH
REF_FRAME      = TEME
TIME_SYSTEM    = UTC
MEAN_ELEMENT_THEORY = SGP/SGP4

EPOCH          = 2026-04-04T20:58:55.462656
MEAN_MOTION    = 14.17235053
ECCENTRICITY   = .00170216
INCLINATION    = 70.9905
RA_OF_ASC_NODE = 315.9112
ARG_OF_PERICENTER = 177.7651
MEAN_ANOMALY   = 182.3552

EPHEMERIS_TYPE = 0
CLASSIFICATION_TYPE = U
NORAD_CAT_ID   = 22803
ELEMENT_SET_NO = 999
REV_AT_EPOCH   = 68324
BSTAR          = .87252496E-4
MEAN_MOTION_DOT = .128E-5
MEAN_MOTION_DDOT = 0

CCSDS_OMM_VERS = 2.0
CREATION_DATE  = 
ORIGINATOR     = 

OBJECT_NAME    = ARIANE 40 R/B
OBJECT_ID      = 1993-061H
CENTER_NAME    = EARTH
REF_FRAME      = TEME
TIME_SYSTEM    = UTC
MEAN_ELEMENT_THEORY = SGP/SGP4

EPOCH          = 2026-04-04T19:33:42.340896
MEAN_MOTION    = 14.32875892
ECCENTRICITY   = .00103985
INCLINATION    = 98.4868
RA_OF_ASC_NODE = 163.1810
ARG_OF_PERICENTER = 200.8087
MEAN_ANOMALY   = 159.2675

EPHEMERIS_TYPE = 0
CLASSIFICATION_TYPE = U
NORAD_CAT_ID   = 22830
ELEMENT_SET_NO = 999
REV_AT_EPOCH   = 69784
BSTAR          = .12454093E-3
MEAN_MOTION_DOT = .297E-5
MEAN_MOTION_DDOT = 0

CCSDS_OMM_VERS = 2.0
CREATION_DATE  = 
ORIGINATOR     = 

OBJECT_NAME    = COSMOS 2278
OBJECT_ID      = 1994-023A
CENTER_NAME    = EARTH
REF_FRAME      = TEME
TIME_SYSTEM    = UTC
MEAN_ELEMENT_THEORY = SGP/SGP4

EPOCH          = 2026-04-04T11:34:54.342624
MEAN_MOTION    = 14.14374965
ECCENTRICITY   = .00093473
INCLINATION    = 71.0505
RA_OF_ASC_NODE = 121.1361
ARG_OF_PERICENTER = 335.2940
MEAN_ANOMALY   = 24.7734

EPHEMERIS_TYPE = 0
CLASSIFICATION_TYPE = U
NORAD_CAT_ID   = 23087
ELEMENT_SET_NO = 999
REV_AT_EPOCH   = 64845
BSTAR          = .38102453E-4
MEAN_MOTION_DOT = .26E-6
MEAN_MOTION_DDOT = 0

CCSDS_OMM_VERS = 2.0
CREATION_DATE  = 
ORIGINATOR     = 

OBJECT_NAME    = SL-16 R/B
OBJECT_ID      = 1994-023B
CENTER_NAME    = EARTH
REF_FRAME      = TEME
TIME_SYSTEM    = UTC
MEAN_ELEMENT_THEORY = SGP/SGP4

EPOCH          = 2026-04-04T20:54:04.014720
MEAN_MOTION    = 14.15019796
ECCENTRICITY   = .00055996
INCLINATION    = 71.0032
RA_OF_ASC_NODE = 15.9034
ARG_OF_PERICENTER = 262.9436
MEAN_ANOMALY   = 97.1050

EPHEMERIS_TYPE = 0
CLASSIFICATION_TYPE = U
NORAD_CAT_ID   = 23088
ELEMENT_SET_NO = 999
REV_AT_EPOCH   = 64979
BSTAR          = .96691514E-4
MEAN_MOTION_DOT = .14E-5
MEAN_MOTION_DDOT = 0

CCSDS_OMM_VERS = 2.0
CREATION_DATE  = 
ORIGINATOR     = 

OBJECT_NAME    = SL-16 R/B
OBJECT_ID      = 1994-074B
CENTER_NAME    = EARTH
REF_FRAME      = TEME
TIME_SYSTEM    = UTC
MEAN_ELEMENT_THEORY = SGP/SGP4

EPOCH          = 2026-04-04T17:00:28.946304
MEAN_MOTION    = 14.79439977
ECCENTRICITY   = .0007721
INCLINATION    = 97.7069
RA_OF_ASC_NODE = 124.4683
ARG_OF_PERICENTER = 128.9076
MEAN_ANOMALY   = 350.4681

EPHEMERIS_TYPE = 0
CLASSIFICATION_TYPE = U
NORAD_CAT_ID   = 23343
ELEMENT_SET_NO = 999
REV_AT_EPOCH   = 69109
BSTAR          = .10880323E-3
MEAN_MOTION_DOT = .763E-5
MEAN_MOTION_DDOT = 0

CCSDS_OMM_VERS = 2.0
CREATION_DATE  = 
ORIGINATOR     = 

OBJECT_NAME    = SL-16 R/B
OBJECT_ID      = 1994-077B
CENTER_NAME    = EARTH
REF_FRAME      = TEME
TIME_SYSTEM    = UTC
MEAN_ELEMENT_THEORY = SGP/SGP4

EPOCH          = 2026-04-04T21:54:37.257408
MEAN_MOTION    = 14.15567829
ECCENTRICITY   = .00015538
INCLINATION    = 70.9819
RA_OF_ASC_NODE = 297.3215
ARG_OF_PERICENTER = 188.3055
MEAN_ANOMALY   = 171.8043

EPHEMERIS_TYPE = 0
CLASSIFICATION_TYPE = U
NORAD_CAT_ID   = 23405
ELEMENT_SET_NO = 999
REV_AT_EPOCH   = 61994
BSTAR          = -.84828689E-4
MEAN_MOTION_DOT = -.214E-5
MEAN_MOTION_DDOT = 0

CCSDS_OMM_VERS = 2.0
CREATION_DATE  = 
ORIGINATOR     = 

OBJECT_NAME    = ARIANE 40+ R/B
OBJECT_ID      = 1995-021B
CENTER_NAME    = EARTH
REF_FRAME      = TEME
TIME_SYSTEM    = UTC
MEAN_ELEMENT_THEORY = SGP/SGP4

EPOCH          = 2026-04-04T23:14:42.224064
MEAN_MOTION    = 14.39792493
ECCENTRICITY   = .00078149
INCLINATION    = 98.4452
RA_OF_ASC_NODE = 166.0891
ARG_OF_PERICENTER = 68.8961
MEAN_ANOMALY   = 103.8884

EPHEMERIS_TYPE = 0
CLASSIFICATION_TYPE = U
NORAD_CAT_ID   = 23561
ELEMENT_SET_NO = 999
REV_AT_EPOCH   = 62302
BSTAR          = .14066748E-3
MEAN_MOTION_DOT = .398E-5
MEAN_MOTION_DDOT = 0

CCSDS_OMM_VERS = 2.0
CREATION_DATE  = 
ORIGINATOR     = 

OBJECT_NAME    = SL-16 R/B
OBJECT_ID      = 1995-058B
CENTER_NAME    = EARTH
REF_FRAME      = TEME
TIME_SYSTEM    = UTC
MEAN_ELEMENT_THEORY = SGP/SGP4

EPOCH          = 2026-04-04T11:55:58.285632
MEAN_MOTION    = 14.15497853
ECCENTRICITY   = .00103168
INCLINATION    = 71.0191
RA_OF_ASC_NODE = 126.0751
ARG_OF_PERICENTER = 78.4433
MEAN_ANOMALY   = 281.7848

EPHEMERIS_TYPE = 0
CLASSIFICATION_TYPE = U
NORAD_CAT_ID   = 23705
ELEMENT_SET_NO = 999
REV_AT_EPOCH   = 57150
BSTAR          = .10563884E-4
MEAN_MOTION_DOT = -.27E-6
MEAN_MOTION_DDOT = 0

CCSDS_OMM_VERS = 2.0
CREATION_DATE  = 
ORIGINATOR     = 

OBJECT_NAME    = SL-16 R/B
OBJECT_ID      = 1996-051B
CENTER_NAME    = EARTH
REF_FRAME      = TEME
TIME_SYSTEM    = UTC
MEAN_ELEMENT_THEORY = SGP/SGP4

EPOCH          = 2026-04-04T12:28:41.886336
MEAN_MOTION    = 14.12423480
ECCENTRICITY   = .00130771
INCLINATION    = 70.7580
RA_OF_ASC_NODE = 120.5674
ARG_OF_PERICENTER = 105.5469
MEAN_ANOMALY   = 254.7096

EPHEMERIS_TYPE = 0
CLASSIFICATION_TYPE = U
NORAD_CAT_ID   = 24298
ELEMENT_SET_NO = 999
REV_AT_EPOCH   = 52529
BSTAR          = .92385007E-4
MEAN_MOTION_DOT = .121E-5
MEAN_MOTION_DDOT = 0

CCSDS_OMM_VERS = 2.0
CREATION_DATE  = 
ORIGINATOR     = 

OBJECT_NAME    = ORBVIEW 2 (SEASTAR)
OBJECT_ID      = 1997-037A
CENTER_NAME    = EARTH
REF_FRAME      = TEME
TIME_SYSTEM    = UTC
MEAN_ELEMENT_THEORY = SGP/SGP4

EPOCH          = 2026-04-04T21:42:28.495008
MEAN_MOTION    = 14.35514478
ECCENTRICITY   = .00020393
INCLINATION    = 98.8612
RA_OF_ASC_NODE = 259.9172
ARG_OF_PERICENTER = 12.4811
MEAN_ANOMALY   = 347.6423

EPHEMERIS_TYPE = 0
CLASSIFICATION_TYPE = U
NORAD_CAT_ID   = 24883
ELEMENT_SET_NO = 999
REV_AT_EPOCH   = 51223
BSTAR          = .14432479E-3
MEAN_MOTION_DOT = .369E-5
MEAN_MOTION_DDOT = 0

CCSDS_OMM_VERS = 2.0
CREATION_DATE  = 
ORIGINATOR     = 

OBJECT_NAME    = SL-16 R/B
OBJECT_ID      = 1998-043G
CENTER_NAME    = EARTH
REF_FRAME      = TEME
TIME_SYSTEM    = UTC
MEAN_ELEMENT_THEORY = SGP/SGP4

EPOCH          = 2026-04-04T19:58:30.973152
MEAN_MOTION    = 14.26056160
ECCENTRICITY   = .00089496
INCLINATION    = 98.8299
RA_OF_ASC_NODE = 48.3883
ARG_OF_PERICENTER = 302.4296
MEAN_ANOMALY   = 57.6018

EPHEMERIS_TYPE = 0
CLASSIFICATION_TYPE = U
NORAD_CAT_ID   = 25400
ELEMENT_SET_NO = 999
REV_AT_EPOCH   = 44271
BSTAR          = .56591905E-4
MEAN_MOTION_DOT = .9E-6
MEAN_MOTION_DDOT = 0

