COSMOS 2242             
1 22626U 93024A   26094.84490977  .00002922  00000+0  25335-3 0  9990
2 22626  82.5178 241.6916 0015562 213.1372 146.8877 14.96675850784302
SL-16 R/B               
1 22803U 93059B   26094.87425304  .00000128  00000+0  87252-4 0  9993
2 22803  70.9905 315.9112 0017021 177.7651 182.3552 14.17235053683244
ARIANE 40 R/B           
1 22830U 93061H   26094.81507339  .00000297  00000+0  12454-3 0  9997
2 22830  98.4868 163.1810 0010398 200.8087 159.2675 14.32875892697844
COSMOS 2278             
1 23087U 94023A   26094.48257341  .00000026  00000+0  38102-4 0  9998
2 23087  71.0505 121.1361 0009347 335.2940  24.7734 14.14374965648452
SL-16 R/B               
1 23088U 94023B   26094.87087980  .00000140  00000+0  96692-4 0  9997
2 23088  71.0032  15.9034 0005599 262.9436  97.1050 14.15019796649798
SL-16 R/B               
1 23343U 94074B   26094.70866836  .00000763  00000+0  10880-3 0  9999
2 23343  97.7069 124.4683 0007721 128.9076 350.4681 14.79439977691095
SL-16 R/B               
1 23405U 94077B   26094.91293122 -.00000214  00000+0 -84829-4 0  9994
2 23405  70.9819 297.3215 0001553 188.3055 171.8043 14.15567829619944
ARIANE 40+ R/B          
1 23561U 95021B   26094.96854426  .00000398  00000+0  14067-3 0  9999
2 23561  98.4452 166.0891 0007814  68.8961 103.8884 14.39792493623026
SL-16 R/B               
1 23705U 95058B   26094.49720238 -.00000027  00000+0  10564-4 0  9999
2 23705  71.0191 126.0751 0010316  78.4433 281.7848 14.15497853571503
SL-16 R/B               
1 24298U 96051B   26094.51992924  .00000121  00000+0  92385-4 0  9992
2 24298  70.7580 120.5674 0013077 105.5469 254.7096 14.12423480525292
ORBVIEW 2 (SEASTAR)     
1 24883U 97037A   26094.90449647  .00000369  00000+0  14432-3 0  9999
2 24883  98.8612 259.9172 0002039  12.4811 347.6423 14.35514478512231
SL-16 R/B               
1 25400U 98043G   26094.83230293  .00000090  00000+0  56592-4 0  9995
2 25400  98.8299  48.3883 0008949 302.4296  57.6018 14.26056160442714
